start=new Date('2023-03-06T00:00:00.000Z').valueOf();
sats=[{"RA_OF_ASC_NODE":"16.5238","LAUNCH_DATE":"2020-08-07","COUNTRY_CODE":"US","MEAN_MOTION":"15.06400268","OBJECT_NAME":"STARLINK-1564","PERIAPSIS":"546.193","INCLINATION":"53.0539","GP_ID":"227543864","NORAD_CAT_ID":"46058","CENTER_NAME":"EARTH","EPOCH":"2023-03-05T06:50:48.573888","REF_FRAME":"TEME","APOAPSIS":"548.232","FILE":"3851939","OBJECT_ID":"2020-055AH","ECCENTRICITY":"0.00014720","TLE_LINE1":"1 46058U 20055AH  23064.28528442  .00001276  00000-0  10456-3 0  9990","SEMIMAJOR_AXIS":"6925.348","MEAN_ELEMENT_THEORY":"SGP4","DECAY_DATE":null,"MEAN_MOTION_DOT":"0.00001276","TIME_SYSTEM":"UTC","TLE_LINE2":"2 46058  53.0539  16.5238 0001472  82.6845 277.4311 15.06400268143175","OBJECT_TYPE":"PAYLOAD","ARG_OF_PERICENTER":"82.6845","ELEMENT_SET_NO":"999","REV_AT_EPOCH":"14317","BSTAR":"0.00010456000000","SITE":"AFETR","CLASSIFICATION_TYPE":"U","MEAN_MOTION_DDOT":"0.0000000000000","RCS_SIZE":"LARGE","PERIOD":"95.592","EPHEMERIS_TYPE":"0","MEAN_ANOMALY":"277.4311"},{"INCLINATION":"53.0541","GP_ID":"227544114","PERIAPSIS":"547.056","CENTER_NAME":"EARTH","NORAD_CAT_ID":"46059","LAUNCH_DATE":"2020-08-07","MEAN_MOTION":"15.06392439","COUNTRY_CODE":"US","RA_OF_ASC_NODE":"17.3849","OBJECT_NAME":"STARLINK-1570","DECAY_DATE":null,"SEMIMAJOR_AXIS":"6925.372","MEAN_ELEMENT_THEORY":"SGP4","MEAN_MOTION_DOT":"0.00019330","FILE":"3851939","OBJECT_ID":"2020-055AJ","EPOCH":"2023-03-05T02:14:48.335136","REF_FRAME":"TEME","APOAPSIS":"547.417","ECCENTRICITY":"0.00002610","TLE_LINE1":"1 46059U 20055AJ  23064.09361499  .00019330  00000-0  13133-2 0  9991","BSTAR":"0.00131330000000","REV_AT_EPOCH":"14310","TLE_LINE2":"2 46059  53.0541  17.3849 0000261  39.7734 320.3274 15.06392439143100","OBJECT_TYPE":"PAYLOAD","TIME_SYSTEM":"UTC","ARG_OF_PERICENTER":"39.7734","ELEMENT_SET_NO":"999","RCS_SIZE":"LARGE","MEAN_ANOMALY":"320.3274","PERIOD":"95.593","EPHEMERIS_TYPE":"0","SITE":"AFETR","CLASSIFICATION_TYPE":"U","MEAN_MOTION_DDOT":"0.0000000000000"},{"RA_OF_ASC_NODE":"17.4001","COUNTRY_CODE":"US","MEAN_MOTION":"15.06384317","LAUNCH_DATE":"2020-08-07","OBJECT_NAME":"STARLINK-1572","PERIAPSIS":"546.115","GP_ID":"227545356","INCLINATION":"53.0573","NORAD_CAT_ID":"46060","CENTER_NAME":"EARTH","APOAPSIS":"548.408","EPOCH":"2023-03-05T02:09:29.765376","REF_FRAME":"TEME","OBJECT_ID":"2020-055AK","FILE":"3851939","ECCENTRICITY":"0.00016550","TLE_LINE1":"1 46060U 20055AK  23064.08992784  .00004956  00000-0  35152-3 0  9993","SEMIMAJOR_AXIS":"6925.397","MEAN_ELEMENT_THEORY":"SGP4","DECAY_DATE":null,"MEAN_MOTION_DOT":"0.00004956","ELEMENT_SET_NO":"999","ARG_OF_PERICENTER":"106.2699","TLE_LINE2":"2 46060  53.0573  17.4001 0001655 106.2699 253.8472 15.06384317143113","OBJECT_TYPE":"PAYLOAD","TIME_SYSTEM":"UTC","REV_AT_EPOCH":"14311","BSTAR":"0.00035152000000","CLASSIFICATION_TYPE":"U","SITE":"AFETR","MEAN_MOTION_DDOT":"0.0000000000000","RCS_SIZE":"LARGE","PERIOD":"95.593","EPHEMERIS_TYPE":"0","MEAN_ANOMALY":"253.8472"},{"MEAN_ANOMALY":"332.8508","PERIOD":"95.593","EPHEMERIS_TYPE":"0","RCS_SIZE":"LARGE","MEAN_MOTION_DDOT":"0.0000000000000","SITE":"AFETR","CLASSIFICATION_TYPE":"U","BSTAR":"-0.00030214000000","REV_AT_EPOCH":"14312","TLE_LINE2":"2 46061  53.0536  18.0356 0000435  27.2504 332.8508 15.06386809143122","OBJECT_TYPE":"PAYLOAD","ARG_OF_PERICENTER":"27.2504","TIME_SYSTEM":"UTC","ELEMENT_SET_NO":"999","MEAN_MOTION_DOT":"-0.00004777","DECAY_DATE":null,"SEMIMAJOR_AXIS":"6925.389","MEAN_ELEMENT_THEORY":"SGP4","TLE_LINE1":"1 46061U 20055AL  23063.94986445 -.00004777  00000-0 -30214-3 0  9992","ECCENTRICITY":"0.00004350","FILE":"3851939","OBJECT_ID":"2020-055AL","EPOCH":"2023-03-04T22:47:48.288480","REF_FRAME":"TEME","APOAPSIS":"547.555","CENTER_NAME":"EARTH","NORAD_CAT_ID":"46061","INCLINATION":"53.0536","GP_ID":"227545111","PERIAPSIS":"546.953","OBJECT_NAME":"STARLINK-1573","LAUNCH_DATE":"2020-08-07","COUNTRY_CODE":"US","MEAN_MOTION":"15.06386809","RA_OF_ASC_NODE":"18.0356"},{"EPHEMERIS_TYPE":"0","PERIOD":"95.593","MEAN_ANOMALY":"232.8479","RCS_SIZE":"LARGE","MEAN_MOTION_DDOT":"0.0000000000000","CLASSIFICATION_TYPE":"U","SITE":"AFETR","BSTAR":"0.00045900000000","ELEMENT_SET_NO":"999","TLE_LINE2":"2 46062  53.0558  16.9886 0001486 127.2646 232.8479 15.06391393143127","OBJECT_TYPE":"PAYLOAD","TIME_SYSTEM":"UTC","ARG_OF_PERICENTER":"127.2646","REV_AT_EPOCH":"14312","MEAN_MOTION_DOT":"0.00006560","SEMIMAJOR_AXIS":"6925.375","MEAN_ELEMENT_THEORY":"SGP4","DECAY_DATE":null,"ECCENTRICITY":"0.00014860","TLE_LINE1":"1 46062U 20055AM  23064.18207768  .00006560  00000-0  45900-3 0  9992","APOAPSIS":"548.269","EPOCH":"2023-03-05T04:22:11.511552","REF_FRAME":"TEME","OBJECT_ID":"2020-055AM","FILE":"3851939","NORAD_CAT_ID":"46062","CENTER_NAME":"EARTH","PERIAPSIS":"546.211","GP_ID":"227544364","INCLINATION":"53.0558","OBJECT_NAME":"STARLINK-1574","RA_OF_ASC_NODE":"16.9886","MEAN_MOTION":"15.06391393","COUNTRY_CODE":"US","LAUNCH_DATE":"2020-08-07"},{"CENTER_NAME":"EARTH","NORAD_CAT_ID":"46063","INCLINATION":"53.0557","GP_ID":"227544613","PERIAPSIS":"546.597","OBJECT_NAME":"STARLINK-1577","LAUNCH_DATE":"2020-08-07","COUNTRY_CODE":"US","MEAN_MOTION":"15.06392258","RA_OF_ASC_NODE":"17.0063","MEAN_MOTION_DOT":"0.00018131","DECAY_DATE":null,"MEAN_ELEMENT_THEORY":"SGP4","SEMIMAJOR_AXIS":"6925.372","ECCENTRICITY":"0.00009250","TLE_LINE1":"1 46063U 20055AN  23064.17839180  .00018131  00000-0  12332-2 0  9990","FILE":"3851939","OBJECT_ID":"2020-055AN","REF_FRAME":"TEME","EPOCH":"2023-03-05T04:16:53.051520","APOAPSIS":"547.878","BSTAR":"0.00123320000000","REV_AT_EPOCH":"14315","OBJECT_TYPE":"PAYLOAD","TLE_LINE2":"2 46063  53.0557  17.0063 0000925  68.0762 292.0325 15.06392258143156","TIME_SYSTEM":"UTC","ARG_OF_PERICENTER":"68.0762","ELEMENT_SET_NO":"999","MEAN_ANOMALY":"292.0325","EPHEMERIS_TYPE":"0","PERIOD":"95.593","RCS_SIZE":"LARGE","MEAN_MOTION_DDOT":"0.0000000000000","SITE":"AFETR","CLASSIFICATION_TYPE":"U"},{"BSTAR":"0.00015850000000","ARG_OF_PERICENTER":"20.1397","TLE_LINE2":"2 46064  53.0560  18.0536 0000981  20.1397 339.9630 15.06377026143125","OBJECT_TYPE":"PAYLOAD","TIME_SYSTEM":"UTC","ELEMENT_SET_NO":"999","REV_AT_EPOCH":"14312","PERIOD":"95.594","EPHEMERIS_TYPE":"0","MEAN_ANOMALY":"339.9630","RCS_SIZE":"LARGE","MEAN_MOTION_DDOT":"0.0000000000000","SITE":"AFETR","CLASSIFICATION_TYPE":"U","NORAD_CAT_ID":"46064","CENTER_NAME":"EARTH","PERIAPSIS":"546.605","INCLINATION":"53.0560","GP_ID":"227544858","OBJECT_NAME":"STARLINK-1583","RA_OF_ASC_NODE":"18.0536","LAUNCH_DATE":"2020-08-07","COUNTRY_CODE":"US","MEAN_MOTION":"15.06377026","MEAN_MOTION_DOT":"0.00002079","SEMIMAJOR_AXIS":"6925.419","MEAN_ELEMENT_THEORY":"SGP4","DECAY_DATE":null,"ECCENTRICITY":"0.00009810","TLE_LINE1":"1 46064U 20055AP  23063.94617946  .00002079  00000-0  15850-3 0  9992","EPOCH":"2023-03-04T22:42:29.905344","REF_FRAME":"TEME","APOAPSIS":"547.963","FILE":"3851939","OBJECT_ID":"2020-055AP"},{"CENTER_NAME":"EARTH","NORAD_CAT_ID":"46065","GP_ID":"227545610","INCLINATION":"53.0534","PERIAPSIS":"546.433","OBJECT_NAME":"STARLINK-1515","COUNTRY_CODE":"US","MEAN_MOTION":"15.06389873","LAUNCH_DATE":"2020-08-07","RA_OF_ASC_NODE":"357.4773","MEAN_MOTION_DOT":"0.00010927","DECAY_DATE":null,"MEAN_ELEMENT_THEORY":"SGP4","SEMIMAJOR_AXIS":"6925.380","ECCENTRICITY":"0.00011720","TLE_LINE1":"1 46065U 20055AQ  23064.07240005  .00010927  00000-0  75153-3 0  9999","OBJECT_ID":"2020-055AQ","FILE":"3851939","APOAPSIS":"548.056","EPOCH":"2023-03-05T01:44:15.364320","REF_FRAME":"TEME","BSTAR":"0.00075153000000","REV_AT_EPOCH":"14340","ELEMENT_SET_NO":"999","TIME_SYSTEM":"UTC","TLE_LINE2":"2 46065  53.0534 357.4773 0001172  81.1356 278.9766 15.06389873143401","OBJECT_TYPE":"PAYLOAD","ARG_OF_PERICENTER":"81.1356","MEAN_ANOMALY":"278.9766","PERIOD":"95.593","EPHEMERIS_TYPE":"0","RCS_SIZE":"LARGE","MEAN_MOTION_DDOT":"0.0000000000000","CLASSIFICATION_TYPE":"U","SITE":"AFETR"},{"OBJECT_NAME":"STARLINK-1525","LAUNCH_DATE":"2020-08-07","MEAN_MOTION":"15.06410754","COUNTRY_CODE":"US","RA_OF_ASC_NODE":"353.5951","CENTER_NAME":"EARTH","NORAD_CAT_ID":"46066","INCLINATION":"53.0559","GP_ID":"227579290","PERIAPSIS":"546.408","TLE_LINE1":"1 46066U 20055AR  23064.93954410  .00017960  00000-0  12212-2 0  9997","ECCENTRICITY":"0.00011150","FILE":"3852256","OBJECT_ID":"2020-055AR","EPOCH":"2023-03-05T22:32:56.610240","REF_FRAME":"TEME","APOAPSIS":"547.953","MEAN_MOTION_DOT":"0.00017960","DECAY_DATE":null,"MEAN_ELEMENT_THEORY":"SGP4","SEMIMAJOR_AXIS":"6925.316","REV_AT_EPOCH":"14354","TLE_LINE2":"2 46066  53.0559 353.5951 0001115  60.7331 299.3770 15.06410754143547","OBJECT_TYPE":"PAYLOAD","TIME_SYSTEM":"UTC","ARG_OF_PERICENTER":"60.7331","ELEMENT_SET_NO":"999","BSTAR":"0.00122120000000","MEAN_MOTION_DDOT":"0.0000000000000","SITE":"AFETR","CLASSIFICATION_TYPE":"U","MEAN_ANOMALY":"299.3770","PERIOD":"95.591","EPHEMERIS_TYPE":"0","RCS_SIZE":"LARGE"},{"RCS_SIZE":"LARGE","PERIOD":"95.592","EPHEMERIS_TYPE":"0","MEAN_ANOMALY":"280.3808","SITE":"AFETR","CLASSIFICATION_TYPE":"U","MEAN_MOTION_DDOT":"0.0000000000000","BSTAR":"0.00107860000000","TLE_LINE2":"2 46067  53.0560 353.5651 0001325  79.7331 280.3808 15.06407753143558","OBJECT_TYPE":"PAYLOAD","TIME_SYSTEM":"UTC","ARG_OF_PERICENTER":"79.7331","ELEMENT_SET_NO":"999","REV_AT_EPOCH":"14355","MEAN_ELEMENT_THEORY":"SGP4","SEMIMAJOR_AXIS":"6925.325","DECAY_DATE":null,"MEAN_MOTION_DOT":"0.00015824","REF_FRAME":"TEME","EPOCH":"2023-03-05T22:36:53.382528","APOAPSIS":"548.107","FILE":"3852256","OBJECT_ID":"2020-055AS","TLE_LINE1":"1 46067U 20055AS  23064.94228452  .00015824  00000-0  10786-2 0  9990","ECCENTRICITY":"0.00013250","PERIAPSIS":"546.272","INCLINATION":"53.0560","GP_ID":"227578536","NORAD_CAT_ID":"46067","CENTER_NAME":"EARTH","RA_OF_ASC_NODE":"353.5651","LAUNCH_DATE":"2020-08-07","MEAN_MOTION":"15.06407753","COUNTRY_CODE":"US","OBJECT_NAME":"STARLINK-1529"}];
